<!DOCTYPE html>

<html class="avn">

<head>
<title>metar display test</title>

<script>

    function toggleDisplayMode(mode){
        console.log(mode);
        document.documentElement.className = "";
        document.documentElement.classList.add(mode);
        document.getElementById("avn-toggle").className = "";
        document.getElementById("ca-pub-toggle").className = "";
        document.getElementById("us-pub-toggle").className = "";
        
        if (mode == "ca-pub") {
            document.getElementById("ca-pub-toggle").classList.add("selected");
        } else if (mode == "avn") {
            document.getElementById("avn-toggle").classList.add("selected");
        } else if (mode == "us-pub") {
            document.getElementById("us-pub-toggle").classList.add("selected");
        }
    }

</script>

<style>

    @import url('https://fonts.googleapis.com/css2?family=Josefin+Sans:wght@100..700&display=swap');
    @import url('https://fonts.googleapis.com/css2?family=Sometype+Mono&display=swap');
    
    *, *::after, *::before { box-sizing: border-box; }
    *:focus { outline: none; }

    :root {
        --bgc: #007399;
/*         --bgc: #000000;  */
/*         --bgc: #800b00; */
/*         --bgc: #ff4433; */
/*         --bgc: #008000; */
        
    }
    
    body {
        max-width: 960px;
        margin: 0 auto;
        background: var(--bgc);
        font-family: "Josefin Sans", sans-serif;
        color: white;
    }
    
    nav, #site-meta {
        background-color: #333333;
        color: white;
        padding: 8px;
        border-bottom: 2px solid black;
    }
    
    #site-id { text-transform: uppercase; font-family: "Sometype Mono", monospace; text-align: center; }
    
    #site-meta { border-top: 2px solid black; margin: 0; text-align: center; border-bottom: none;}
    
    nav > input, nav > button, nav > select, #taf-notam > button { font-family: inherit; }
    nav > button, nav > select { cursor: pointer; }
    nav > input, nav > button, nav > select {
        border: 1px solid black;
        background-color: #eeeeee;
        padding: 4px;
        border-radius: 4px;
    }
    
    .metar-string, #taf-notam > p {
        white-space: pre-wrap;
        font-family: "Sometype Mono", monospace;
        margin: 0;
        padding: 0 8px;
        background: rgba(255,255,255,0.3);
    }
    
    .metar-string:nth-of-type(2n) {
        background: rgba(255,255,255,0.6);
        color: black;
    }
    .metar-string { padding: 4px 8px; }
    
    
    
    .metar-sigwx:not(.aviation) { font-weight: bold; color: black; background: white; padding: 0 2px; border-radius: 4px; }
    :root.avn > body > section > p > .metar-sigwx.aviation { font-weight: bold; color: black; background: white; padding: 0 2px; border-radius: 4px; }
    
    #taf-notam > p > span { display: block; }
    
    #taf-notam > p .metar-sigwx { color: white; background: black; }
    
    #site-meta > *::before, label[for="site-id"]::before, #load-button::before, #hrs::before, #avn-toggle::before, #ca-pub-toggle::before, #us-pub-toggle::before, #taf-notam > button::before {
        content: "";
        background-size: 100% 100%;
        padding-right: 16px;
        margin-right: 4px;
        filter: invert();
    }

    #load-button::before {
        filter: none;
        background-size: 80% 100%;
        background-repeat: no-repeat;
        background-image: url("images/icons/load.png");
    }
    
    #avn-toggle::before, #ca-pub-toggle::before, #us-pub-toggle::before, #taf-notam > button::before {
        background-size: 100% 100%;
        background-repeat: no-repeat;
        padding-right: 12px;
    }
    
    #avn-toggle.selected::before, #ca-pub-toggle.selected::before, #us-pub-toggle.selected::before, #taf-notam > button.selected::before { filter: none; }
    
    #avn-toggle { border-radius: 4px 0 0 4px; border-right: none; }
    #ca-pub-toggle { border-radius: 0; }
    #us-pub-toggle { border-radius: 0 4px 4px 0; border-left: none; }
    
    #avn-toggle, #ca-pub-toggle, #us-pub-toggle, #taf-notam > button { background: #444444; color: white; }
    #avn-toggle.selected, #ca-pub-toggle.selected, #us-pub-toggle.selected, #taf-notam > button.selected { background: #eeeeee; color: black; }
    
    #site-name { display: block; font-weight: 700; }
    #site-name::before { background-image:url("images/icons/airport.png");  }
    label[for="site-id"]::before { background-image:url("images/icons/search.png");  } 
    #avn-toggle::before { background-image:url("images/icons/plane.png"); }
    #elevation::before { background-image:url("images/icons/mountains.png"); }
    #sun-times::before { background-image:url("images/icons/sun.png"); }
    #lat-lon::before   { background-image:url("images/icons/map.png"); }
    #ca-pub-toggle::before { background-image:url("images/icons/can.png"); }
    #us-pub-toggle::before { background-image:url("images/icons/usa.png"); }
    #taf-toggle::before { background-image:url("images/icons/taf.png"); }
    #notam-toggle::before { background-image:url("images/icons/notam.png"); }
    
    #taf-notam > p { margin: 0; padding: 4px 8px; color: black; background-color: #eeeeee; }
 /*   #taf-notam > p > span { margin: 4px 0; }*/
    
    #taf-notam > button { margin: 0; padding: 4px; width: 50%; border: none; border-top: 1px solid black; border-bottom: 1px solid black; cursor: pointer; }
    #taf-notam > button:first-of-type { border-right: 1px solid black; }
    .taf-meta { font-weight: bold; border-bottom: 1px dashed black; }
    .taf-fm-group { text-indent: 16px ; }
    .taf-part-period { text-indent: 32px ; }
    .taf-rmk { text-indent: 16px ; }

</style>
</head>

<body>


<nav>
    <label for="site-id">Site ID:</label>
    <input type="text" name="site-id" autofocus="" maxlength="4" id="site-id">
    <button id="load-button">Load</button>
    <select id="hrs">
        <option value="7">6 hrs</option>
        <option value="13">12 hrs</option>
        <option value="19">18 hrs</option>
        <option value="25" selected="">24 hrs</option>
        <option value="37">36 hrs</option>
        <option value="49">48 hrs</option>
        <option value="97">96 hrs</option>
    </select>
    <label>Units:</label>
    <button id="avn-toggle" class="selected" onclick="toggleDisplayMode('avn')">AVN</button><button id="ca-pub-toggle" onclick="toggleDisplayMode('ca-pub')">CAN</button><button id="us-pub-toggle" onclick="toggleDisplayMode('us-pub')">USA</button>
</nav>

<section id="metar-output">
    <p class="metar-string" data-tt="22" data-td="6" data-dd="24" data-ff="3" data-gg="">CYEG 142100Z 24003KT 160V260 20SM FEW060TCU SCT110 BKN220 22/06 A2968 RMK TCU2AC2CI3 TCU SH DIST SW-W SLP054 DENSITY ALT 4000FT</p>
    <p class="metar-string" data-tt="22" data-td="6" data-dd="36" data-ff="5" data-gg="">CYEG 142145Z CCB 36005KT 350V060 20SM <span class="metar-sigwx">TS</span> <span class="metar-sigwx aviation">SCT060CB</span> BKN090 BKN220 21/10 A2967 RMK CB3AC3CI1 CB SW-W MOV NE OCNL LTGIC SLP051 DENSITY ALT 3900FT</p>
    <p class="metar-string" data-tt="22" data-td="6" data-dd="30" data-ff="8" data-gg="">CYEG 142200Z 30008KT 20SM <span class="metar-sigwx">-TSRA</span> <span class="metar-sigwx aviation">SCT060CB</span> BKN080 BKN220 20/08 A2968 RMK CB4AC3CI1 CI TR CB SW-W MOV NE OCNL LTGIC SLP056 DENSITY ALT 3800FT</p>
    <p class="metar-string" data-tt="22" data-td="6" data-dd="27" data-ff="21" data-gg="">CYEG 142214Z 27021KT 20SM <span class="metar-sigwx">TSRA</span> <span class="metar-sigwx aviation">BKN060CB</span> BKN080 17/08 A2970 RMK CB5AC2 CB OHD S-W MOV NE OCNL LTGIC OHD SW VIS SW 10 SLP064 DENSITY ALT 3500FT</p>
    <p class="metar-string" data-tt="22" data-td="6" data-dd="26" data-ff="21" data-gg="30">CYEG 142236Z <span class="metar-sigwx">26021G30KT</span> 15SM <span class="metar-sigwx">-TSRA</span> <span class="metar-sigwx aviation">BKN062CB</span> OVC080 14/08 A2975 RMK CB6AC2 CB OHD E-S OCNL LTGICCG SE MOV NE VIS SE 6 PRESRR SLP083 DENSITY ALT 3000FT</p>
    <p class="metar-string" data-tt="22" data-td="6" data-dd="26" data-ff="11" data-gg="23">CYEG 142251Z 26011G23KT 8SM SHRA <span class="metar-sigwx aviation">BKN062CB</span> BKN080 BKN220 13/09 A2974 RMK CB5AC2CI1 CI TR CB OHD NE-SE MOV NE SLP082 DENSITY ALT 3000FT</p>
    <p class="metar-string" data-tt="22" data-td="6" data-dd="34" data-ff="15" data-gg="">CYEG 142258Z 34015KT 250V350 10SM -SHRA FEW023 <span class="metar-sigwx aviation">BKN062CB</span> BKN080 BKN220 13/09 A2971 RMK SC2CB3AC2CI1 CI TR CB E MOV NE PRESFR SLP070 DENSITY ALT 3000FT</p>
    <p class="metar-string" data-tt="22" data-td="6" data-dd="32" data-ff="12" data-gg="18">CYEG 142300Z CCA 32012G18KT 260V350 15SM -SHRA FEW020 <span class="metar-sigwx aviation">BKN062CB</span> BKN080 BKN220 13/09 A2972 RMK SC2CB3AC2CI1 CI TR CB E MOV NE PRESFR SLP075 DENSITY ALT 3000FT</p>
    <p class="metar-string" data-tt="22" data-td="6" data-dd="28" data-ff="12" data-gg="">CYEG 142315Z 28012KT 20SM FEW020 <span class="metar-sigwx aviation">SCT062CB</span> BKN088 BKN220 15/10 A2976 RMK SC1CB4AC3CI1 SC TR CI TR CB SH N-E MOV NE SH ALQDS PRESRR SLP088 DENSITY ALT 3200FT</p>
    <p class="metar-string" data-tt="22" data-td="6" data-dd="33" data-ff="15" data-gg="20">CYEG 150000Z 33015G20KT 20SM <span class="metar-sigwx aviation">FEW062CB</span> BKN083 BKN120 BKN250 14/09 A2972 RMK CB2AC3AC1CI1 CB SH DIST N QUAD MOV NE PRESFR SLP075 DENSITY ALT 3100FT</p>
    <p class="metar-string" data-tt="22" data-td="6" data-dd="29" data-ff="9" data-gg="15">CYEG 150100Z 29009G15KT 20SM FEW060 FEW085 BKN250 16/09 A2972 RMK CU1AC1CI5 CU TR TCU TOPS DIST S-SW SLP070 DENSITY ALT 3300FT</p>
    <p class="metar-string" data-tt="22" data-td="6" data-dd="28" data-ff="5" data-gg="">CYEG 150200Z 28005KT 20SM FEW060TCU FEW085 FEW250 17/09 A2973 RMK TCU1AC1CI2 TCU TR AC TR CONTRAILS SLP073 DENSITY ALT 3400FT</p>
    <p class="metar-string" data-tt="16" data-td="9" data-dd="31" data-ff="6" data-gg="">CYEG 150300Z 31006KT 20SM FEW040TCU FEW085 FEW150 SCT250 16/09 A2975 RMK TCU1AC1AC1CI1 TCU TR TCU N SLP083 DENSITY ALT 3200FT</p>
</section>
<section id="site-meta">
    <span id="site-name">Edmonton Intl Arpt</span>
    <span id="lat-lon">53.3°N 113.6°W</span>
    <span id="elevation">2330 ft / 710 m</span>
    <span id="sun-times">↑11:06Z ↓04:04Z</span>
</section>
<section id="taf-notam">
    <button id="taf-toggle" class="selected">TAF</button><button id="notam-toggle">NOTAMs</button>
    <p><span class="taf-main"><span class="taf-meta">TAF CYEG 151140Z 1512/1612</span> 26005KT P6SM FEW120</span><span class="taf-fm-group">FM151700 28008KT P6SM FEW050 SCT120</span><span class="taf-fm-group">FM152000 32012KT P6SM SCT060 BKN100</span><span class="taf-part-period">TEMPO 1520/1524 P6SM -SHRA BKN060</span><span class="taf-fm-group">FM160000 30008KT P6SM BKN060 BKN100</span><span class="taf-part-period">TEMPO 1600/1606 P6SM -SHRA <span class="metar-sigwx">VCTS</span> <span class="metar-sigwx">BKN050CB</span></span><span class="taf-fm-group">FM160600 30010KT P6SM -SHRA BKN030 OVC050</span><span class="taf-rmk">RMK NXT FCST BY 151500Z</span></p>
</section>


</body>

</html>
